postcode,Name,Lat,Long
50400,Kuala Lumpur,3.14896,101.69705
53100,GombakKuala Lumpur,3.268023.19615,101.67636101.71212
17050,Pasir Mas,5.96102,102.14837
50490,Kuala Lumpur,3.14657,101.66732
81100,Johor Bahru,1.54952,103.70802
86000,Kluang,1.92262,103.40376
47620,Subang Jaya,3.03372,101.5873
5050,Alor Setar,6.01406,100.38319
50200,Kuala Lumpur,3.14473,101.70068
40400,Shah Alam,3.04573,101.55727
50450,Kuala Lumpur,3.15121,101.70914
89208,Tuaran,6.16856,116.23483
71450,Seremban,2.70095,101.96167
87012,Labuan,5.29132,115.24591
41000,Klang,3.03487,101.51195
47400,Petaling Jaya,3.12957,101.62743
89857,Sipitang,5.02016,115.58108
26800,Kuala Rompin,2.94963,103.40893
89100,Kota Marudu,6.54071,116.82238
89007,Keningau,5.26497,116.32826
17700,Ayer Lanas,5.81422,101.92533
89808,Beaufort,5.34749,115.72731
27600,Raub,3.75769,101.9827
68000,Ampang,3.15492,101.74124
15100,Kota Bharu,6.07058,102.24581
6100,Kodiang,6.20449,100.37456
75450,Air KerohMelakaAyer Keroh,2.305332.209992.28718,102.33459102.26368102.27586
20050,Kuala Terengganu,5.2886,103.10396
75250,Melaka,2.22699,102.23956
81550,Gelang Patah,1.46193,103.58572
22020,Jerteh,5.67945,102.5851
32800,Parit,4.55035,100.90635
28740,Bentong,3.23081,102.11507
89200,Tuaran,6.132,116.20691
2600,Arau,6.42456,100.27356
11700,Gelugor,5.36529,100.30671
47100,PuchongSungai Buloh,3.075753.24448,101.61977101.56001
71600,Kuala Klawang,2.9555,102.07187
47000,Sungai Buloh,3.1618,101.59804
14000,Bukit Mertajam,5.33437,100.46734
47301,Petaling Jaya,3.10415,101.61284
50480,Kuala Lumpur,3.163,101.67534
90720,Sandakan,5.84561,118.05706
17200,Rantau Panjang,5.96317,102.00725
81800,Ulu Tiram,1.67279,103.63247
56100,Kuala LumpurCherasCheras,3.119713.110523.11052,101.7275101.73893101.73893
89058,Kudat,6.82855,116.72412
18300,Gua Musang,5.03561,102.02471
71900,Labu,2.73391,101.89273
8600,Sungai Petani,5.78032,100.52012
85000,Segamat,2.3134,102.97857
89057,Kudat,6.82855,116.72412
90000,Sandakan,5.84799,117.95913
11010,Balik Pulau,5.3581,100.27249
31450,Ipoh,4.59038,101.08068
50300,Kuala Lumpur,3.18408,101.69107
14200,Simpang AmpatSungai Jawi,5.322635.21563,100.439100.50447
45500,Tanjong Karang,3.31603,101.32015
28300,Triang,3.3177,102.47983
42700,Banting,2.90918,101.52789
86200,Simpang Rengam,1.88097,103.39569
31650,Ipoh,4.57564,101.07878
88300,Kota Kinabalu,5.93424,116.08024
91207,Kunak,4.75631,118.08949
95000,Sri Aman,1.31768,111.38942
21000,Kuala Terengganu,5.30178,103.12592
31400,Ipoh,4.61137,101.10426
46050,Petaling Jaya,3.095,101.62323
26600,Pekan,3.53735,103.28012
15300,Kota Bharu,6.11593,102.24518
22000,Jerteh,5.6111,102.57287
34200,Parit Buntar,4.90702,100.60293
89308,Ranau,5.93705,116.66948
87000,Labuan,5.29597,115.2429
90200,Kota Kinabatangan,5.24381,117.48405
89507,Penampang,5.87936,116.10398
47300,Petaling Jaya,3.10972,101.61711
81750,masaiMasai,1.564121.55584,103.7838103.76163
10300,Pulau Pinang,5.41109,100.3334
25200,Kuantan,3.76957,103.22244
16400,Melor,5.91998,102.27416
48000,Rawang,3.25491,101.5705
41400,Klang,3.05568,101.46115
28000,Temerloh,3.48402,102.42657
2000,Kuala Perlis,6.2683,100.20876
89747,Kuala Penyu,5.49142,115.54905
81700,Pasir Gudang,1.50024,103.82734
89728,Membakut,5.52429,115.68894
88000,Kota Kinabalu,5.86259,115.9946
17500,Tanah Merah,5.76871,102.12005
81300,Johor Bahru,1.54271,103.64868
27000,JerantutJerantut,3.400433.40043,102.08983102.08983
2500,Kangar,6.41126,100.23708
35500,Bidor,4.17865,101.22655
93300,Kuching,1.59922,110.44359
86800,Mersing,2.30426,103.75988
43100,Hulu Langat,3.07186,101.8347
23000,Dungun,4.81682,103.30359
31100,Sungai Siput,4.74212,101.0601
93450,Kuching,1.54844,110.36755
47810,Petaling Jaya,3.14404,101.58753
1000,Kangar,6.43123,100.20558
55200,Kuala Lumpur,3.13902,101.70597
96000,Sibu,2.20858,111.60005
43900,Sepang,2.97649,101.70671
13700,Perai,5.38339,100.39303
10150,Pulau Pinang,5.40673,100.32586
91000,Tawau,4.29012,117.89943
89108,Kota Marudu,6.48525,116.73285
80000,Johor Bahru,1.50345,103.74053
82200,Benut,1.68641,103.27128
55100,PandanKuala Lumpur,3.133063.13663,101.75033101.71719
75460,Melaka,2.20996,102.29064
33300,Gerik,5.28062,101.10068
81000,Johor BahruKulai,1.463431.72595,103.75472103.50107
54000,Kuala Lumpur,3.16494,101.72296
41150,Klang,3.04894,101.48774
96850,Song,1.73504,112.533
82000,Pontian,1.5666,103.38727
53000,Kuala Lumpur,3.17884,101.70447
43300,Seri Kembangan,3.0383,101.7094
89600,Papar,5.5174,115.90355
51200,Kuala Lumpur,3.1876,101.67201
47150,Puchong,3.10126,101.56926
14310,Nibong Tebal,5.21361,100.44805
16200,Tumpat,6.11735,102.16847
95600,Spaoh,1.65327,111.59829
71000,Port Dickson,2.59319,101.84129
84800,Bukit Gambir,2.14369,102.85367
2400,Kangar,6.4547,100.21445
30450,Ipoh,4.61615,101.08597
43000,Kajang,3.00941,101.77548
81200,Johor Bahru,1.5249,103.68742
17000,Pasir Mas,6.01294,102.14585
42000,Pelabuhan Klang,3.01862,101.42863
31600,Gopeng,4.51934,101.11527
96600,Julau,1.78299,111.96987
68100,Batu CavesBatu Caves,3.225053.22505,101.68025101.68025
83000,Batu Pahat,1.85776,103.03568
35600,Sungkai,4.11198,101.25294
93050,Kuching,1.58315,110.22511
5200,Alor Setar,6.02756,100.39892
81900,Kota Tinggi,1.74267,103.77881
89909,Tenom,4.98722,115.92408
10400,Pulau Pinang,5.41723,100.32332
51000,Kuala Lumpur,3.19114,101.69317
34850,Changkat Jering,4.70671,100.832
22200,Kampung Raja,5.73321,102.61301
93150,Kuching,1.55852,110.3877
89257,Tamparuli,6.11704,116.26751
2100,Padang Besar,6.53414,100.30997
45000,Kuala Selangor,3.24567,101.36783
27620,Raub,3.79836,102.11818
43500,Semenyih,2.99822,101.80171
82100,Ayer Baloi,1.69266,103.25239
71700,Mantin,2.80778,101.9088
23100,Paka,4.73145,103.35801
71500,Tanjong Ipoh,2.72995,102.15256
25000,Kuantan,3.80986,103.28932
59100,Kuala Lumpur,3.13166,101.67074
9800,Serdang,5.47652,100.59376
28050,Kuala Krau,3.62374,102.45601
26400,Bandar Pusat JengkaBandar Pusat Jengka,3.694183.6739,102.53939102.5212
89157,Kota Belud,6.36483,116.44763
84000,MuarTangkak,2.00511.97676,102.7335102.91247
16450,Ketereh,5.91792,102.22739
70300,Seremban,2.73129,101.93073
88200,Kota Kinabalu,5.92129,116.07919
75150,Melaka,2.22568,102.25627
52200,Kuala Lumpur,3.15532,101.6668
11950,Bayan Lepas,5.32711,100.28508
9400,Padang Serai,5.53309,100.55338
5100,Alor Setar,6.12716,100.36985
8000,Sungai Petani,5.66388,100.49024
26070,Kuantan,3.75794,103.17508
36200,Selekoh,3.99552,100.76795
80200,Johor Bahru,1.49772,103.71626
85400,Chaah,2.04905,103.14429
40000,Shah Alam,3.07974,101.51857
76300,Sungai Udang,2.28667,102.14065
10250,Pulau Pinang,5.42647,100.32052
21600,Marang,5.2424,103.12597
5350,Alor StarAlor Setar,6.119366.06418,100.36769100.39474
53300,SetapakKuala Lumpur,3.187593.16981,101.71021101.70597
48300,Rawang,3.30829,101.5123
80350,Johor Bahru,1.53876,103.70122
6000,Jitra,6.13161,100.43515
72120,Bandar Seri Jempol,2.82994,102.25313
93250,Kuching,1.56204,110.31523
58200,Kuala Lumpur,3.09335,101.67944
88400,Kota Kinabalu,5.96147,115.98627
97000,Bintulu,2.62615,112.13667
72200,Batu Kikir,2.83522,102.20864
31900,KamparMambang Di Awan,4.355074.07768,101.12523101.2424
32000,Sitiawan,4.32271,100.80213
36000,Teluk Intan,4.17392,101.01935
13200,Kepala Batas,5.44568,100.45661
75350,Melaka,2.2218,102.25853
88838,Kota Kinabalu,5.97647,116.11578
50100,Kuala Lumpur,3.15127,101.69472
60000,Kuala Lumpur,3.14564,101.64504
11000,Balik Pulau,5.35202,100.28236
30100,Ipoh,4.61243,101.07598
24000,Cukai,4.33046,103.352
31300,Kampung Kepayang,4.55951,101.06726
43700,Beranang,2.95205,101.82615
84200,Muar,2.01025,102.69815
57000,Kuala Lumpur,3.10129,101.69151
56000,CherasKuala LumpurCheras,3.075053.105963.07505,101.73824101.71803101.73824
34300,Bagan Serai,4.86869,100.69681
43650,Bandar Baru Bangi,2.9918,101.74547
96800,Kapit,1.9499,113.16923
91100,Lahad Datu,5.04339,118.34601
58100,Kuala Lumpur,3.11855,101.68698
90307,Sandakan,5.84561,118.05706
16810,Selising,5.88993,102.29585
88450,Kota Kinabalu,5.95584,116.03685
30200,Ipoh,4.59791,101.08843
85100,Batu Anam,2.42469,102.84967
21070,Kuala Terengganu,5.271,103.12352
77300,Merlimau,2.19797,102.37181
46350,Petaling Jaya,3.11599,101.6425
72000,Kuala Pilah,2.7226,102.21377
40150,Shah Alam,3.11002,101.55377
55300,Kuala Lumpur,3.11774,101.74242
46300,Petaling Jaya,3.13167,101.60472
59200,Kuala Lumpur,3.1185,101.67566
46200,Petaling Jaya,3.08318,101.64069
26140,Kuantan,3.95698,103.22595
42920,Pulau IndahPelabuhan Klang,2.966253.13731,101.37675101.74708
5460,Alor StarAlor Setar,6.119366.08026,100.36769100.3946
21100,Kuala Terengganu,5.31991,103.10742
31500,Ipoh,4.57729,101.08567
30300,Ipoh,4.63815,101.07499
91030,Tawau,4.28246,117.91479
24100,Kijal,4.43602,103.41754
21400,Bukit Payong,5.23205,103.10406
95900,Lubok Antu,1.25485,111.6771
40100,Shah Alam,3.07988,101.53336
5400,Alor SetarAlor Star,6.056786.11615,100.3876100.37034
9310,Kuala Ketil,5.58489,100.7507
75400,Melaka,2.21102,102.25482
5150,Alor SetarAlor Star,6.090146.07272,100.36923100.38592
91115,Lahad Datu,5.04885,118.35931
75300,Melaka,2.20738,102.25096
11600,Jelutong,5.39558,100.31106
83400,Sri MedanSeri Medan,1.508441.90712,103.71365103.07573
34100,Selama,4.82898,100.88408
16150,Kota Bharu,6.06023,102.23412
25300,Kuantan,3.80913,103.23628
80100,Johor Bahru,1.5041,103.70518
30000,Ipoh,4.65017,101.06822
21500,Sungai Tong,5.2448,102.87951
91300,Semporna,4.43633,118.53184
16800,Pasir PutehPasir Puteh,5.817785.87605,102.3748102.38409
5710,Alor Setar,6.11936,100.36769
18000,Kuala Krai,5.56927,102.17863
5644,Alor Setar,6.11936,100.36769
89107,Kota Marudu,6.48525,116.73285
48050,Rawang,3.25595,101.56419
87015,Labuan,5.29132,115.24591
89727,Membakut,5.52429,115.68894
16300,Bachok,6.02688,102.3366
32300,Pangkor,4.25968,100.60948
88844,Kota Kinabalu,5.97647,116.11578
90719,Sandakan,5.84561,118.05706
34000,Taiping,4.79687,100.79344
21200,Kuala Terengganu,5.29671,103.08469
15400,Kota Bharu,6.11854,102.24895
41200,Klang,3.02318,101.46209
21700,Kuala Berang,5.10477,102.97329
9100,Baling,5.72295,100.78312
70100,Seremban,2.71072,101.95125
47500,Petaling JayaSubang Jaya,3.08863.05415,101.60704101.59487
70400,Seremban,2.74864,101.9435
2700,Simpang Ampat,6.31553,100.20256
26820,Kuala Rompin,2.9468,103.32862
78200,Kuala Sungai Baru,2.33001,102.09614
41250,Klang,3.04004,101.44961
16250,Wakaf Bharu,6.08639,102.20987
42100,Klang,3.05923,101.46152
31000,Batu Gajah,4.44216,101.05459
15200,Kota Bharu,6.10503,102.25103
43950,Sungai Pelek,2.85265,101.63203
89650,Tambunan,5.69327,116.37971
76100,Durian Tunggal,2.30135,102.28425
18050,Kuala Krai,5.53393,102.19964
13110,Penaga,5.48524,100.39368
20200,Kuala Terengganu,5.31652,103.12461
50350,Kuala Lumpur,3.15121,101.69561
42200,Kapar,3.13313,101.42074
95700,Betong,1.50379,111.46747
34500,Batu Kurau,4.95526,100.83979
91109,Lahad Datu,5.04885,118.35931
88100,Kota Kinabalu,5.94121,116.00963
41050,Klang,3.06451,101.4786
89158,Kota Belud,6.36483,116.44763
50470,Kuala Lumpur,3.13401,101.68729
10470,Pulau Pinang,5.42891,100.31037
91016,Tawau,4.28246,117.91479
34900,Pantai Remis,4.57075,100.6901
50460,Kuala Lumpur,3.13652,101.69413
71300,Rembau,2.57979,102.1108
20300,Kuala Terengganu,5.29375,103.14095
28500,Lanchang,3.55474,102.26499
75000,Melaka,2.20191,102.2518
6500,Langgar,6.04791,100.40696
26060,KuantanKuantan,3.622773.62277,102.39263102.39263
81400,Senai,1.64455,103.59734
6700,Pendang,5.96228,100.47198
93100,Kuching,1.61377,110.45974
89908,Tenom,4.98722,115.92408
8100,Bedong,5.78786,100.47193
32400,Ayer Tawar,4.36739,100.86044
96300,Dalat,2.28531,111.90267
80050,Johor Bahru,1.48634,103.77133
78100,Lubok China,2.43255,102.11267
17600,Jeli,5.728,101.92245
89008,Keningau,5.26497,116.32826
91307,Semporna,4.43634,118.53184
35000,Tapah,4.32791,101.15951
89700,Bongawan,5.48345,115.78342
84300,Bukit Pasir,2.1122,102.76167
89500,Penampang,5.88835,116.10261
28800,Lurah Bilut,3.66232,101.92016
75200,Melaka,2.21154,102.24101
91112,Lahad Datu,5.04885,118.35931
70450,Seremban,2.77245,101.94024
40718,Shah Alam,3.09061,101.5296
54200,Kuala Lumpur,3.17289,101.7334
52100,Kuala Lumpur,3.18325,101.65845
83100,Rengit,1.66404,103.24531
25150,Kuantan,3.76859,103.23282
14300,Nibong Tebal,5.21405,100.45183
6600,Kuala Kedah,5.99193,100.36355
17610,Kuala Balah,5.45264,101.92119
22300,Kuala Besut,5.79978,102.55793
28200,Bandar BeraTriang,3.343693.40506,102.52811102.62328
8800,Gurun,5.78963,100.52379
45800,Jeram,3.1944,101.42813
94700,Serian,1.2438,110.25629
98000,Miri,4.26777,113.96924
85300,Labis,2.26038,103.54577
78300,Masjid Tanah,2.3301,102.14718
91023,Tawau,4.28246,117.91479
57100,Kuala Lumpur,3.10933,101.69953
11400,Pulau Pinang,5.40827,100.30865
71200,Rantau,2.63094,101.95539
32600,BotaBandar Seri Iskandar,4.472374.35867,100.89641100.96728
11060,Pulau Pinang,5.40189,100.3036
89957,Nabawan,5.04137,116.42673
33000,Kuala Kangsar,4.7073,100.93812
10000,Pulau Pinang,5.4166,100.33046
20000,Kuala Terengganu,5.28468,103.14746
77500,Selandar,2.38403,102.35842
33410,Lenggong,5.11386,101.04888
98700,Limbang,4.13707,114.60053
6400,PendangPokok Sena,5.982456.04324,100.45936100.52211
89657,Tambunan,5.69149,116.37753
42500,Telok Panglima Garang,3.06388,101.53555
31350,Ipoh,4.57228,101.11566
10200,Pulau Pinang,5.42084,100.3361
13050,Butterworth,5.41608,100.40472
25050,Kuantan,3.8109,103.28838
45600,Batang Berjuntai,3.30355,101.46004
46000,Petaling Jaya,3.10704,101.63049
46150,Petaling Jaya,3.10898,101.57043
58000,Kuala Lumpur,3.12377,101.68414
16100,Kota BharuKota Bahru,5.980826.12201,102.31803102.25227
21080,Kuala Terengganu,5.34048,103.07537
47120,Puchong,3.01222,101.6283
12200,Butterworth,5.4211,100.3762
10460,Pulau Pinang,5.41189,100.31423
14100,Simpang Ampat,5.28753,100.47088
8200,Sik,5.82069,100.69513
90739,Sandakan,5.84561,118.05706
13300,Tasek GelugurTasek Gelugor,5.263235.45296,100.48462100.47499
93350,Kuching,1.54352,110.38157
8700,Jeniang,5.8761,100.61458
70200,Seremban,2.75176,101.94276
47130,Puchong,2.98813,101.60533
43200,Cheras,3.06425,101.75429
28700,Bentong,3.52814,101.97628
45400,Sekinchan,3.37875,101.27981
35900,Tanjong Malim,3.91589,101.38123
91309,Semporna,4.43633,118.53184
17520,,,
89607,Papar,5.60641,115.96248
91008,Tawau,4.28246,117.91479
45300,Sungai Besar,3.56147,101.14595
75100,Melaka,2.20698,102.25445
16020,BachokKota Bharu,6.05586.02647,102.3487102.19053
90714,Sandakan,5.84561,118.05706
22100,Permaisuri,5.46981,102.86019
96100,Sarikei,2.04554,111.53455
12000,Butterworth,5.40925,100.3649
15050,Kota Bharu,6.12121,102.24586
89608,Papar,5.60641,115.96247
6250,Alor StarAlor Setar,5.875036.04885,100.37568100.35651
31700,Malim Nawar,4.38444,101.1174
90009,Sandakan,5.84561,118.05706
91308,Semporna,4.43633,118.53184
20400,Kuala Terengganu,5.21842,103.16818
21300,Kuala Terengganu,5.34363,103.07964
28730,Bentong,3.40948,102.00238
33400,Lenggong,4.98464,100.97299
6750,Pendang,5.95624,100.48231
45200,Sabak Bernam,3.62536,101.05928
5000,Alor Setar,6.10633,100.36846
44100,Kerling,3.55656,101.56122
30020,Ipoh,4.63066,101.04579
59000,Kuala Lumpur,3.13283,101.6783
89050,Kudat,6.82983,116.88675
95500,Debak,1.57752,111.21679
21820,Ajil,5.04643,103.09011
88817,Kota Kinabalu,5.97647,116.11578
45100,Sungai Ayer Tawar,3.77602,100.87501
2450,Kangar,6.47559,100.22503
72300,Simpang Pertang,3.01804,102.30176
47200,Subang Airport,3.18511,101.62752
89150,Kota Belud,6.34626,116.46648
32040,Seri ManjongSeri Manjung,4.219964.60203,100.75409100.79787
73000,TampinJohol,2.56872.63598,102.18243102.29326
80150,Johor Bahru,1.50735,103.73286
53200,Kuala Lumpur,3.17017,101.70565
77000,Jasin,2.2933,102.41461
43800,Dengkil,2.96863,101.65201
88848,Kota Kinabalu,5.97647,116.11578
26900,Bandar Tun Abdul Razak,2.94988,102.68182
23050,Dungun,4.77886,103.37262
33600,Enggor,4.8218,100.94596
14120,Simpang Ampat,5.30369,100.44386
22120,Permaisuri,5.43952,102.88662
94600,Asajaya,1.54238,110.51601
91114,Lahad Datu,5.04885,118.35931
6550,Alor StarAlor Setar,6.119366.11373,100.36769100.35273
50150,Kuala Lumpur,3.14055,101.69552
6350,Pokok Sena,6.15416,100.56135
23300,Ketengah Jaya,4.43482,103.37626
30250,Ipoh,4.59162,101.09673
80300,Johor Bahru,1.47574,103.75373
88837,Kota Kinabalu,5.97647,116.11578
88813,Kota Kinabalu,5.97647,116.11578
87027,Labuan,5.29132,115.24591
34520,Batu Kurau,4.9876,100.83017
6650,Simpang Empat,6.01304,100.40184
88700,Beverly,5.4204,116.79678
98850,Lawas,3.91174,114.09092
7000,Langkawi,6.2439,99.9533
40460,Shah Alam,3.05381,101.53041
91020,Tawau,4.28246,117.91479
36010,Teluk Intan,4.47065,100.8573
47600,Subang Jaya,3.04734,101.57124
41300,Klang,3.0641,101.466
71010,RantauPort Dickson,2.588972.58287,101.9629101.84021
72100,Bahau,2.81987,102.29343
11200,Tanjong BungahTanjung Bungah,5.451465.46077,100.2943100.28135
26080,KuantanBalok,3.698073.94418,103.01952103.28628
10050,Pulau Pinang,5.41946,100.32784
89807,Beaufort,5.34749,115.72731
78000,Alor Gajah,2.36181,102.22145
18500,Machang,5.75729,102.21682
50250,Kuala Lumpur,3.14466,101.69509
76400,Tanjong KlingMelaka,2.243962.20568,102.18371102.25616
89059,Kudat,6.82855,116.72412
96200,Daro,2.53208,111.52527
36800,Kampung Gajah,4.3923,100.93071
8500,Kota Kuala Muda,5.74047,100.42426
89260,TenghilanBeverly,5.997665.4204,116.52902116.79678
93200,Kuching,1.52982,110.34622
10350,Pulau Pinang,5.43086,100.31379
89109,Kota Marudu,6.48525,116.73285
87010,Labuan,5.29132,115.24591
12300,Butterworth,5.40677,100.38484
89300,Ranau,5.95892,116.64022
27650,Sungai Koyan,4.15821,101.84001
89767,Menumbok,5.31948,115.37558
41100,Klang,3.04923,101.45144
96400,Mukah,2.4118,112.04349
40505,Shah Alam,3.09061,101.5296
89907,Tenom,4.98722,115.92408
47630,Subang Jaya,3.03339,101.58484
88861,Kota Kinabalu,5.97647,116.11578
46100,Petaling Jaya,3.10258,101.62885
97300,Bintulu,3.26405,113.08464
83700,Yong Peng,1.91393,103.13259
70000,Seremban,2.81091,101.90123
93400,Kuching,1.61669,110.44067
6900,Yan,5.83662,100.4039
71770,Seremban,2.73797,101.9624
9300,Kuala Ketil,5.67474,100.67545
5300,Alor Setar,6.09067,100.38188
6300,Kuala Nerang,6.14607,100.58334
28030,Temerloh,3.63706,102.52411
98008,Miri,4.33313,113.99486
90737,Sandakan,5.84561,118.05706
11900,Bayan LepasBatu Maung,5.329395.35495,100.29067100.2709
28100,Chenor,3.50182,102.64547
34400,Simpang Ampat Semanggol,4.92108,100.70841
88673,Kota Kinabalu,5.97647,116.11578
93752,Kuching,1.53098,110.34422
44300,Batang KaliBatangkali,3.375133.22064,101.63061101.57355
94650,Kabong,1.84529,111.4252
47610,Subang Jaya,3.04388,101.57917
13000,Butterworth,5.42193,100.38883
44000,Kuala Kubu Baru,3.38595,101.54884
6910,Yan,5.83362,100.39251
90713,Sandakan,5.84561,118.05706
73200,Gemencheh,2.62125,102.31127
21010,Kuala Terengganu,5.2638,103.09377
21800,Ajil,5.06194,103.04955
25100,Kuantan,3.7784,103.17443
27200,Kuala Lipis,4.06285,102.10706
88905,Kota Kinabalu,5.97647,116.11578
88800,Kota Kinabalu,5.97647,116.11578
40200,Shah Alam,3.05442,101.51689
40300,Shah Alam,3.05486,101.53144
91150,Lahad Datu,5.04885,118.35931
72500,Kuala Pilah,2.75659,102.25226
13600,Perai,5.37688,100.38482
34140,Rantau Panjang,5.0506,100.81298
26500,MaranBandar Pusat Jengka,3.573463.74158,102.78956102.54431
33040,Kuala Kangsar,4.72722,100.95643
95007,Sri Aman,1.23358,111.46374
31150,Ulu Kinta,4.60083,101.10068
80250,Johor Bahru,1.50352,103.74044
31250,Tanjong Rambutan,4.56014,101.14476
94300,Kota Samarahan,1.47269,110.40204
28330,Triang,3.29192,102.5316
52000,Kuala Lumpur,3.20288,101.66468
8400,Merbok,5.72623,100.45289
30010,Ipoh,4.57543,101.11514
77100,Asahan,2.38,102.48194
6150,Ayer Hitam,6.18927,100.28595
47800,Petaling Jaya,3.11488,101.58686
34600,Kamunting,4.82626,100.77169
77200,BembanJasin,2.258172.38488,102.35548102.2101
94800,Simunjan,1.26573,110.81252
89209,Tuaran,6.16856,116.23483
89000,Keningau,5.3561,116.30486
88807,Kota Kinabalu,5.97647,116.11578
15350,Kota Bharu,6.1118,102.249
88832,Kota Kinabalu,5.97647,116.11578
21210,Kuala Terengganu,5.26898,103.06142
9600,Lunas,5.50709,100.55888
36700,Langkap,4.20147,101.08144
88773,Kota Kinabalu,5.97647,116.11578
88846,Kota Kinabalu,5.97647,116.11578
90107,Beluran,5.71677,117.43747
96700,Kanowit,1.9416,112.08661
32200,Lumut,4.31704,100.79772
21450,Chalok,5.38674,102.86763
90709,Sandakan,5.84561,118.05706
31200,Chemor,4.72812,101.11995
47180,Puchong,3.06657,101.61225
80400,Johor Bahru,1.50175,103.74135
42450,,,
15720,Kota Bharu,6.12202,102.24916
36750,Chikus,4.30816,101.01733
96009,Sibu,2.31003,111.84004
47820,Petaling Jaya,3.15711,101.60189
71800,Nilai,2.80926,101.8334
83600,Semerah,1.9075,102.8813
95800,Engkilili,1.28173,110.90739
15000,Kota Bharu,6.12526,102.24606
50000,Kuala Lumpur,3.14331,101.69549
13500,Permatang Pauh,5.39341,100.41071
6200,Kepala Batas,5.96606,100.47342
88860,Kota Kinabalu,5.97647,116.11578
17030,Pasir Mas,5.89307,102.17122
86700,Kahang,2.15037,103.5336
26700,Muadzam Shah,3.20413,102.80523
21040,Kuala Terengganu,5.26239,103.07925
55000,Kuala Lumpur,3.15324,101.72517
31920,KamparMambang Di Awan,4.280124.44226,101.09948101.11306
84150,Parit Jawa,1.91518,102.81967
91024,Tawau,4.28246,117.91479
47110,Puchong,3.0099,101.63184
91007,Tawau,4.28246,117.91479
9000,Kulim,5.47242,100.5385
95400,Saratok,1.66292,111.20756
86400,Parit Raja,1.8605,103.10041
42800,Tanjong Sepat,2.76911,101.56248
42300,Bandar Puncak Alam,3.16822,101.52712
33100,Pengkalan Hulu,5.47308,101.01047
16050,Bachok,6.03198,102.32513
34700,Simpang,4.71834,100.79863
73400,Gemas,2.66369,102.52592
47160,Puchong,3.04713,101.62944
71760,Bandar Baru Enstek,2.75256,101.76671
90724,Sandakan,5.84561,118.05706
34350,Kuala Kurau,4.92113,100.51865
91110,Lahad Datu,5.04885,118.35931
28400,Mentakab,3.54347,102.3122
71250,Si Rusa,2.50453,101.92165
89357,,,
83500,Parit Sulong,1.96626,102.90147
50672,Kuala Lumpur,3.139,101.68685
35350,Temoh,4.35043,101.16222
46760,Petaling Jaya,3.10709,101.60826
71350,Kota,2.52313,102.13882
39200,Ringlet,4.29615,101.54507
25250,Kuantan,3.751,103.12757
15150,Kota Bharu,6.11867,102.25076
90740,Sandakan,5.84561,118.05706
16010,Kota Bharu,6.00637,102.21796
88853,Kota Kinabalu,5.97647,116.11578
71400,Rembau,2.59678,102.08989
73100,Johol,2.61824,102.27011
81500,Pekan NenasSungai Mati,1.662731.51407,103.4182103.70141
10450,Pulau Pinang,5.41819,100.3068
6010,ChangloonUniversiti Utara Malaysia,6.237146.45738,100.43072100.50602
91209,Kunak,4.75631,118.08949
47650,Subang Jaya,3.14017,101.60725
71960,Port Dickson,2.6616,101.76869
48200,Serendah,3.23003,101.63743
12100,Butterworth,5.41255,100.37483
26050,Bukit Goh,3.77934,102.9106
26100,BalokKuantan,3.912033.83727,103.32983103.287
18200,Dabong,5.49382,102.05226
36600,Chenderong Balai,4.29916,101.01005
22010,Jerteh,5.62092,102.59327
71950,Seremban,2.69808,101.90752
51100,Kuala Lumpur,3.17499,101.68933
33310,Gerik,5.34765,101.06513
8300,Gurun,5.80643,100.51359
84600,Pagoh,2.08697,102.88705
75050,Melaka,2.19932,102.26847
47170,Puchong,3.02715,101.60342
89307,Ranau,5.93705,116.66948
8330,Gurun,5.8013,100.51755
21090,Kuala Terengganu,5.775,103.015
88858,Tanjung Aru,5.97715,116.06777
91111,Lahad Datu,5.04885,118.35931
84400,Sungai Mati,2.07489,102.7197
88869,Kota Kinabalu,5.97647,116.11578
88789,Kota Kinabalu,5.97647,116.11578
90729,Sandakan,5.84561,118.05706
84900,Tangkak,2.14616,102.78478
62502,Putrajaya,2.92758,101.69605
88757,Kota Kinabalu,5.97647,116.11578
73470,Pusat Bandar Palong,2.9001,102.56254
35800,Slim River,4.03033,101.29395
24300,Kerteh,4.69852,103.35681
88815,Kota Kinabalu,5.97647,116.11578
31550,Pusing,4.51172,100.99172
17040,Pasir Mas,6.02839,102.15515
21060,Kuala Terengganu,5.3185,103.07395
81600,Pengerang,1.46559,103.94351
90109,Beluran,5.71677,117.43747
25350,Kuantan,3.7745,103.2176
18020,,,
96508,Bintangor,2.21382,111.55139
45700,Bukit Rotan,3.19556,101.39264
13100,Penaga,5.46315,100.4027
13800,Butterworth,5.37226,100.44176
95407,Saratok,1.7362,111.35284
6660,Alor Setar,6.01667,100.4
16070,Bachok,6.03342,102.34988
88839,Kota Kinabalu,5.97647,116.11578
26040,Kuantan,3.84592,103.17692
88803,Kota Kinabalu,5.97647,116.11578
11960,Batu Maung,5.25803,100.29234
81920,Ayer Tawar 3Ayer Tawar 5Ayer Tawar 2Ayer Tawar 4,1.720972.130821.757811.50584,103.8967102.44717103.92906103.95007
89250,Tamparuli,6.11704,116.26751
90734,Sandakan,5.84561,118.05706
96250,Matu,2.6413,111.44373
88849,Kota Kinabalu,5.97647,116.11578
89850,Sipitang,5.03309,115.57282
35400,Tapah Road,4.26845,101.12361
31950,Mambang Di Awan,4.33329,101.09792
89207,Tuaran,6.16856,116.23483
73507,Rompin,2.69452,102.52639
90707,Sandakan,5.84561,118.05706
93728,Kuching,1.53098,110.34422
14400,Kubang Semang,5.40882,100.48371
88774,Kota Kinabalu,5.97647,116.11578
71100,Rantau,2.5693,101.99704
26090,Bukit Goh,3.82201,103.02171
2800,Simpang Ampat,6.31944,100.20306
88840,Kota Kinabalu,5.97647,116.11578
97008,Bintulu,3.19057,113.09011
87018,Labuan,5.29132,115.24591
85200,Jementah,2.17367,102.94926
88766,Kota Kinabalu,5.97647,116.11578
27300,Benta,3.95832,102.16919
86100,Ayer Hitam,1.90318,103.21645
5250,Alor Setar,6.09763,100.38644
88721,Putatan,5.4204,116.79678
28020,Temerloh,3.48222,102.48121
16600,Pulai Chondong,5.89076,102.23756
34750,Matang,4.78043,100.72466
93600,Kuching,1.55678,110.3522
18400,Temangan,5.76118,102.1769
89950,Nabawan,4.76758,116.40173
98150,Bekenu,4.06776,113.83152
91028,Tawau,4.28246,117.91479
73430,Pusat Bandar Palong,2.71841,102.57649
11500,Ayer Itam,5.36805,100.30502
28600,Karak,3.43387,102.15425
27090,Jerantut,3.88029,102.48369
31750,Tronoh,4.43059,101.01399
89740,Kuala Penyu,5.48943,115.53468
71150,Linggi,2.52718,102.02602
88852,Kota Kinabalu,5.97647,116.11578
90736,Sandakan,5.84561,118.05706
50050,Kuala Lumpur,3.14508,101.69448
39100,Brinchang,4.35573,101.62745
17020,Pasir Mas,6.04035,102.14646
88820,Kota Kinabalu,5.97647,116.11578
26300,Gambang,3.74444,103.13777
96500,Bintangor,2.22443,111.57915
10600,Pulau Pinang,5.36771,100.43461
6800,Kota Sarang Semut,5.90077,100.40887
94500,Lundu,1.67328,109.8363
91116,Lahad Datu,5.04885,118.35931
77400,Sungai Rambai'Sungai Rambai,2.136772.16186,102.50512102.43093
24200,Kemasek,4.61997,103.35296
89800,Beaufort,5.34525,115.70778
27310,Benta,3.91677,102.06634
71050,Si Rusa,2.50988,102.0049
88811,Kota Kinabalu,5.97647,116.11578
88902,Kota Kinabalu,5.97647,116.11578
21030,Kuala Terengganu,5.34509,103.10467
93000,Kuching,1.54547,110.3439
50744,Kuala Lumpur,3.139,101.68685
83200,Senggarang,1.81382,103.04667
42600,Jenjarom,2.97235,101.52824
16030,Bachok,6.05471,102.38678
16090,Bachok,6.03376,102.3572
23400,Al Muktatfi Billah Shah,4.61992,103.20887
48020,Rawang,3.22774,101.60167
8320,Jeniang,5.83425,100.6252
23200,Bukit Besi,5.03953,102.79089
87030,Labuan,5.29132,115.24591
34030,Taiping,4.73483,100.84017
8010,Sungai Petani,5.71661,100.50615
89159,Kota Belud,6.36483,116.44763
32900,Lambor Kanan,4.38498,100.91629
20100,Kuala Terengganu,5.31339,103.1178
33320,Gerik,5.45061,101.1319
81450,Gugusan Taib Andak,1.7601,103.68519
88785,Kota Kinabalu,5.97647,116.11578
17060,Pasir Mas,6.00612,102.17431
88808,Kota Kinabalu,5.97647,116.11578
48010,Rawang,3.33515,101.54982
28040,Temerloh,3.48836,102.43095
39010,Tanah Rata,4.18639,101.66869
36100,Bagan Datoh,3.9793,100.75933
98200,Niah,3.19499,112.68478
73460,Pusat Bandar Palong,3.08077,102.54887
6720,Pendang,5.93522,100.4749
8007,Sungai Petani,5.64902,100.49513
90708,Sandakan,5.84561,118.05706
47830,Petaling Jaya,3.18709,101.59175
90100,Beluran,5.99451,117.33609
90712,Sandakan,5.84561,118.05706
33020,Kuala Kangsar,4.80694,100.93207
73450,Pusat Bandar Palong,2.73322,102.58431
10100,Pulau Pinang,5.41658,100.33257
40450,Shah Alam,3.06116,101.51894
90718,Sandakan,5.84561,118.05706
96007,Sibu,2.31003,111.84004
33700,Padang Rengas,4.81738,100.86775
33010,Kuala Kangsar,4.79911,100.90867
39000,Tanah RataTanah Rata,4.430124.43012,101.41654101.41654
40170,Shah Alam,3.07325,101.5054
27610,Raub,3.78751,102.13881
81440,Bandar Tenggara,1.78756,103.6699
35300,Chenderiang,4.31107,101.23392
9700,Karangan,5.57481,100.60046
91015,Tawau,4.28246,117.91479
94200,Siburan,1.3148,110.37514
50609,Kuala Lumpur,3.139,101.68685
72400,Simpang Durian,3.01682,102.17932
52109,,,
21810,Ajil,5.01784,103.13386
94000,Bau,1.48125,110.10129
33500,Sauk,4.84957,100.94564
96008,Sibu,2.31003,111.84004
90722,Sandakan,5.84561,118.05706
91125,Lahad Datu,5.04885,118.35931
98707,Limbang,4.34665,115.18363
87019,Labuan,5.29132,115.24591
88819,Kota Kinabalu,5.97647,116.11578
21020,Kuala Terengganu,5.32051,103.05964
88845,Kota Kinabalu,5.97647,116.11578
87028,Labuan,5.29132,115.24591
96510,,,
40160,Shah Alam,3.16428,101.55839
91120,Lahad Datu,5.04885,118.35931
98107,Lutong,4.48031,114.0108
88821,Kota Kinabalu,5.97647,116.11578
15500,Kota Bharu,6.12201,102.25227
93700,Kuching,1.53098,110.34422
91118,Lahad Datu,5.04885,118.35931
17010,Pasir Mas,6.03774,102.14859
13310,Tasek Gelugor,5.45581,100.45494
94950,Pusa,1.60965,111.43372
34250,Tanjong Piandang,4.9011,100.57313
95008,Sri Aman,1.23358,111.46374
26010,Kuantan,3.81981,103.2423
88854,Kota Kinabalu,5.97647,116.11578
90727,Sandakan,5.84561,118.05706
91021,Tawau,4.28246,117.91479
93724,Kuching,1.53098,110.34422
90735,Sandakan,5.84561,118.05706
26650,Pekan,3.47943,103.12899
26410,Bandar Pusat Jengka,3.74158,102.54431
27400,Dong,3.88342,101.98303
27030,Damak,3.84874,102.24603
40675,Shah Alam,3.09061,101.5296
97013,Bintulu,3.19057,113.09011
90703,Sandakan,5.84561,118.05706
93762,Kuching,1.53098,110.34422
87023,Labuan,5.29132,115.24591
88814,Kota Kinabalu,5.97647,116.11578
33800,Manong,4.65226,100.88267
89259,Tamparuli,6.11704,116.26751
26690,Chini,3.21062,103.02234
90700,Sandakan,5.84561,118.05706
95300,Roban,1.88382,111.31554
11100,Batu Ferringhi,5.44515,100.29113
33420,Lenggong,5.15956,101.00089
90728,Sandakan,5.84561,118.05706
90723,Sandakan,5.84561,118.05706
91127,Lahad Datu,5.04885,118.35931
88826,Kota Kinabalu,5.97647,116.11578
11920,Bayan Lepas,5.31849,100.26907
84710,,,
70500,Seremban,2.71859,101.94899
36400,Hutan Melintang,4.03333,100.94715
90726,Sandakan,5.84561,118.05706
71309,Rembau,2.57966,102.10238
88825,Kota Kinabalu,5.97647,116.11578
27100,Padang Tengku,4.19073,102.04946
40706,Shah Alam,3.09061,101.5296
76450,Melaka,2.26822,102.22341
88857,Inanam,5.99328,116.13225
11050,Pulau Pinang,5.41643,100.28843
16210,Tumpat,6.11829,102.13864
90716,Sandakan,5.84561,118.05706
6050,Bukit Kayu Hitam,6.34934,100.4429
27040,Jerantut,3.97211,102.37294
13220,Kepala Batas,5.46364,100.42132
97100,Sebauh,2.78113,112.67021
88805,Kota Kinabalu,5.97647,116.11578
98050,Baram,2.07683,112.38373
24207,Kemasek,4.42161,103.43805
89760,Menumbok,5.33975,115.37658
96150,Belawai,1.96358,111.09467
96900,Belaga,2.48107,113.62917
88822,Kota Kinabalu,5.97647,116.11578
94850,Sebuyau,1.3337,110.92747
91027,Tawau,4.28246,117.91479
71750,Mantin,2.83826,101.92144
40470,Shah Alam,3.06085,101.56609
44010,Kuala Kubu Baru,3.3057,101.51666
90741,Sandakan,5.84561,118.05706
20720,Kuala Terengganu,5.31174,103.11991
88867,Kota Kinabalu,5.97647,116.11578
88614,Kota Kinabalu,5.97647,116.11578
88863,Kota Kinabalu,5.97647,116.11578
90731,Sandakan,5.84561,118.05706
88856,Likas,6.00795,116.12559
91122,Lahad Datu,5.04885,118.35931
88802,Kota Kinabalu,5.97647,116.11578
45620,Batang Berjuntai,3.30192,101.30053
17070,Pasir Mas,6.01015,102.14858
31800,Tanjong Tualang,4.39124,101.04612
47190,Puchong,3.05333,101.63482
86900,Endau,2.54149,103.542
73300,Gemencheh,2.57942,102.39773
28407,Mentakab,3.48617,102.32835
98100,Lutong,4.48031,114.0108
46720,Petaling Jaya,3.10709,101.60826
89009,Keningau,5.26497,116.32826
34950,Bandar Baharu,5.18731,100.51564
2200,Kaki Bukit,6.64719,100.2022
5700,Alor Setar,6.11936,100.36769
14110,Simpang Ampat,5.32991,100.39274
86300,KluangRengam,1.763241.8498,103.60759103.35555
62300,Putrajaya,2.92636,101.69644
73420,Gemas,2.65923,102.55287
25730,Kuantan,3.82497,103.3239
88786,Kota Kinabalu,5.97647,116.11578
87017,Labuan,5.29132,115.24591
13020,Butterworth,5.33983,100.43881
88806,Kota Kinabalu,5.97647,116.11578
81110,,,
89609,Papar,5.60641,115.96247
35820,Slim River,3.81397,101.42234
11020,Balik Pulau,5.36619,100.23796
16310,Bachok,5.99315,102.36358
90717,Sandakan,5.84561,118.05706
87022,Labuan,5.29132,115.24591
34510,Batu Kurau,5.12114,100.77828
87031,Labuan,5.29132,115.24591
28750,Bentong,3.44814,101.91419
9200,Kupang,5.68181,100.75802
16060,Bachok,6.05471,102.38678
89309,Ranau,5.93705,116.66948
93714,Kuching,1.53098,110.34422
84500,Panchor,2.04227,102.95377
88768,Kota Kinabalu,5.97647,116.11578
91011,Tawau,4.28246,117.91479
98857,Lawas,4.82114,115.4274
28010,Temerloh,3.51616,102.4182
91031,Tawau,4.28246,117.91479
88724,Putatan,5.4204,116.79678
88999,Kota Kinabalu,5.97647,116.11578
88675,Kota Kinabalu,5.98182,116.07563
50500,Kuala Lumpur,3.13249,101.6957
13400,Butterworth,5.402,100.39404
90300,Sandakan,5.84561,118.05706
44200,Rasa,3.38614,101.60928
31050,Sungai Siput,4.91343,101.06651
24007,Cukai,4.23273,103.41523
16700,Cherang Ruku,5.87217,102.43633
26810,Kuala Rompin,2.89561,103.3812
87014,Labuan,5.29132,115.24591
88760,Kota Kinabalu,5.97647,116.11578
88772,Kota Kinabalu,5.97647,116.11578
24050,Ayer PutehCeneh,4.470254.1373,103.17335103.24759
22110,Permaisuri,5.5436,102.81797
88823,Kota Kinabalu,5.97647,116.11578
91126,Lahad Datu,5.04885,118.35931
71650,Kuala Klawang,2.96971,102.0807
93754,Kuching,1.53098,110.34422
33030,Kuala Kangsar,4.86747,100.95801
88810,Kota Kinabalu,5.97647,116.11578
21610,Marang,5.05989,103.27958
88836,Kota Kinabalu,5.97647,116.11578
94900,Lingga,1.33061,111.19524
88851,Kota Kinabalu,5.97647,116.11578
47900,,,
6570,Alor Setar,5.94187,100.42723
88761,Kota Kinabalu,5.97647,116.11578
90702,Sandakan,5.84561,118.05706
70990,Seremban,2.71859,101.94899
70730,Seremban,2.71859,101.94899
46400,Petaling Jaya,3.07624,101.65291
27020,Jerantut,3.94361,102.43824
81050,,,
9010,Kulim,5.59563,100.61287
14320,Nibong Tebal,5.18937,100.45009
31560,Pusing,4.48915,100.93868
26660,Pekan,3.50652,103.17901
91009,Tawau,4.28246,117.91479
91014,Tawau,4.28246,117.91479
31850,Jeram,4.36408,101.15393
97012,Bintulu,3.19057,113.09011
90733,Sandakan,5.84561,118.05706
88725,Putatan,5.4204,116.79678
88850,Kota Kinabalu,5.97647,116.11578
28707,Bentong,3.52493,101.90974
98057,Baram,1.35257,111.51759
X52100,,,
83300,Seri GadingSri Gading,1.819681.85635,103.23993102.92589
91025,Tawau,4.28246,117.91479
88870,Kota Kinabalu,5.97647,116.11578
73480,Gemas,2.67051,102.54512
8210,Sik,5.93594,100.74722
88779,Kota Kinabalu,5.97647,116.11578
90705,Sandakan,5.84561,118.05706
16080,Tumpat,6.14106,102.17626
90725,Sandakan,5.84561,118.05706
16040,Wakaf Bharu,6.05733,102.17431
6710,Pendang,5.99359,100.54178
88855,Kota Kinabalu,5.97647,116.11578
28310,Triang,3.26407,102.45476
22040,,,
96108,Sarikei,2.11781,111.52121
90721,Sandakan,5.84561,118.05706
98800,Sundar,3.97775,114.06514
88862,Kota Kinabalu,5.97647,116.11578
90711,Sandakan,5.84561,118.05706
89900,Tenom,4.98389,115.93004
62250,Putrajaya,2.94717,101.68719
9110,Kuala Pegang,5.78736,100.69228
26630,Pekan,3.53332,103.29863
88865,Kota Kinabalu,5.97647,116.11578
26640,Pekan,3.54005,103.25316
94007,Bau,1.41797,110.16143
88790,Kota Kinabalu,5.97647,116.11578
81310,Johor Bahru,1.51073,103.69839
28380,Kemayan,3.24517,102.42518
84700,Gerisek,2.21503,102.78543
98007,Miri,4.33313,113.99486
73500,Rompin,2.69404,102.46125
96107,Sarikei,2.11781,111.52121
88777,Kota Kinabalu,5.97647,116.11578
88801,Kota Kinabalu,5.97647,116.11578
98708,Limbang,4.34665,115.18363
88818,Kota Kinabalu,5.97647,116.11578
91124,Lahad Datu,5.04885,118.35931
28007,Temerloh,3.45316,102.42449
62050,Putrajaya,2.92636,101.69644
88787,Kota Kinabalu,5.97647,116.11578
88500,Kota Kinabalu,5.97647,116.11578
88762,Kota Kinabalu,5.97647,116.11578
89659,Tambunan,5.69149,116.37753
91035,Tawau,4.28246,117.91479
47410,Petaling Jaya,3.12003,101.59516
96350,Balingian,2.2248,111.60437
36300,Sungai Sumun,4.04483,100.86207
53800,Kuala Lumpur,3.139,101.68685
90400,Pamol,6.07932,117.50241
87011,Labuan,5.29132,115.24591
71550,Tanjong Ipoh,2.6982,102.17908
91026,Tawau,4.28246,117.91479
88841,Kota Kinabalu,5.97647,116.11578
17510,Tanah Merah,5.76568,102.1153
96807,Kapit,1.90978,113.63559
88769,Kota Kinabalu,5.97647,116.11578
96410,Mukah,2.85758,111.87624
89809,Beaufort,5.34749,115.72731
88609,Kota Kinabalu,5.97647,116.11578
27630,RaubSungai Ruan,3.6893.74171,102.00701101.98735
41330,,,
28340,Kemayan,3.25099,102.55932
91032,Tawau,4.28246,117.91479
88771,Kota Kinabalu,5.97647,116.11578
75609,Melaka,2.20568,102.25616
91022,Tawau,4.28246,117.91479
84020,,,
14020,Bukit Mertajam,5.3465,100.47081
88722,Putatan,5.4204,116.79678
47510,,,
97007,Bintulu,3.19057,113.09011
50784,Kuala Lumpur,3.139,101.68685
26610,Pekan,3.57319,103.2581
93748,Kuching,1.53098,110.34422
91018,Tawau,4.28246,117.91479
88835,Kota Kinabalu,5.97647,116.11578
98058,Baram,1.35257,111.51759
50676,Kuala Lumpur,3.139,101.68686
91034,Tawau,4.28246,117.91479
80600,Johor Bahru,1.46343,103.75472
87025,Labuan,5.29132,115.24591
32020,,,
91123,Lahad Datu,5.04885,118.35931
36030,Teluk Intan,4.16165,101.03541
87021,Labuan,5.29132,115.24591
34010,Taiping,4.70237,100.77378
26180,Kuantan,3.85927,103.27501
88830,Kota Kinabalu,5.97647,116.11578
88804,Kota Kinabalu,5.97647,116.11578
91200,Kunak,4.67704,118.13919
26200,Sungai Lembing,3.81044,102.9129
88904,Kota Kinabalu,5.97647,116.11578
97200,Tatau,2.57335,112.69055
89720,Membakut,5.52429,115.68894
64000,KLIA,2.82394,101.68699
91017,Tawau,4.28246,117.91479
88783,Kota Kinabalu,5.97647,116.11578
40670,Shah Alam,3.09061,101.5296
32610,Bandar Seri Iskandar,4.43013,101.01205
9410,Padang Serai,5.60774,100.60558
62100,Putrajaya,2.92805,101.69804
88723,Putatan,5.4204,116.79678
91029,Tawau,4.28246,117.91479
87016,Labuan,5.29132,115.24591
93746,Kuching,1.53098,110.34422
98300,Long Lama,3.96705,114.29842
42900,,,
88903,Kota Kinabalu,5.97647,116.11578
26420,Bandar Pusat Jengka,3.69899,102.55277
32700,Bruas,4.74985,100.83703
97010,Bintulu,3.19057,113.09011
43558,Kajang,2.99773,101.78636
90715,Sandakan,5.84561,118.05706
34800,Trong,4.65393,100.77387
48100,Batu ArangRawang,3.180183.32164,101.50342101.47437
86810,Mersing,2.43611,103.83123
89509,Penampang,5.87936,116.10398
88829,Kota Kinabalu,5.97647,116.11578
72109,Bahau,2.80458,102.3876
90738,Sandakan,5.84561,118.05706
91113,Lahad Datu,5.04885,118.35931
88765,Kota Kinabalu,5.97647,116.11578
90704,Sandakan,5.84561,118.05706
41560,Klang,3.04306,101.44066
87024,Labuan,5.29132,115.24591
27150,Jerantut,3.99198,102.33986
27010,Jerantut,3.96272,102.34462
88831,Kota Kinabalu,5.97647,116.11578
X50350,,,
88812,Kota Kinabalu,5.97647,116.11578
35700,Trolak,3.95774,101.33415
91019,Tawau,4.28246,117.91479
28320,Triang,3.19292,102.29393
88600,Kota Kinabalu,5.97865,116.07616
26250,Jaya Gading,3.81726,103.17332
32500,Changkat Keruing,4.2702,100.89087
88775,Kota Kinabalu,5.97647,116.11578
30350,Ipoh,4.61049,101.10451
28610,Karak,3.45505,102.04237
91012,Tawau,4.28246,117.91479
91013,Tawau,4.28246,117.91479
X54200,,,
88767,Kota Kinabalu,5.97647,116.11578
50740,Kuala Lumpur,3.139,101.68685
88847,Kota Kinabalu,5.97647,116.11578
26430,Bandar Pusat JengkaBandar Pusat Jengka,3.741583.75976,102.54431102.58435
90730,Sandakan,5.84561,118.05706
44020,Kuala Kubu Baru,3.45932,101.48071
10710,Pulau Pinang,5.41792,100.3296
9810,Serdang,5.36488,100.61508
5600,Alor Setar,6.11936,100.36769
9020,Kulim,5.54944,100.51857
27210,Kuala Lipis,4.51191,101.97344
87013,Labuan,5.29132,115.24591
89508,Penampang,5.87936,116.10398
88866,Kota Kinabalu,5.97647,116.11578
14290,Bandar Bahru,5.65636,100.54219
50088,Kuala Lumpur,3.1479,101.70076
70720,Seremban,2.71859,101.94899
54100,Kuala Lumpur,3.15363,101.70375
27050,Jerantut,3.86295,102.34998
90706,Sandakan,5.84561,118.05706
50780,Kuala Lumpur,3.139,101.68685
88900,Kota Kinabalu,5.97647,116.11578
81850,Layang-Layang,1.78321,103.43878
88868,Kota Kinabalu,5.97647,116.11578
11910,Bayan Lepas,5.3163,100.28095
81910,,,
41700,Klang,3.04335,101.44132
81930,Bandar Penawar,1.67118,103.97251
26620,Pekan,3.50866,103.02624
58990,Kuala Lumpur,3.139,101.68685
25700,Kuantan,3.82497,103.3239
1009,Kangar,6.44552,100.20023
88784,Kota Kinabalu,5.97647,116.11578
43600,Bangi,2.92707,101.78022
26680,Pekan,3.29873,103.33415
31610,Gopeng,4.61226,101.09372
88996,Kota Kinabalu,5.97647,116.11578
88871,Kota Kinabalu,5.97647,116.11578
63000,Cyberjaya,2.96789,101.65304
42960,Pulau Carey,2.88792,101.39129
89958,Nabawan,5.04137,116.42673
25990,Kuantan,3.69997,103.02256
76460,,,
40250,,,
47640,Subang Jaya,2.9766,101.62191
X50470,,,
27070,Jerantut,3.88403,102.56064
26020,,,
33200,Intan,5.42972,101.03421
26150,Balok,3.93168,103.3769
73440,Pusat Bandar Palong,2.68732,102.55849
62150,Putrajaya,2.92636,101.69644
88788,Kota Kinabalu,5.97647,116.11578
91121,Lahad Datu,5.04885,118.35931
86600,Paloh,2.1593,103.50701
42400,,,
20700,Kuala Terengganu,5.31174,103.11991
88827,Kota Kinabalu,5.97647,116.11578
88763,Kota Kinabalu,5.97647,116.11578
52400,,,
50901,Kuala Lumpur,3.139,101.68685
91117,Lahad Datu,5.04885,118.35931
88828,Kota Kinabalu,5.97647,116.11578
90701,Sandakan,5.84561,118.05706
88834,Kota Kinabalu,5.97647,116.11578
8110,Bedong,5.6793,100.44233
88992,Kota Kinabalu,5.97647,116.11578
88622,Kota Kinabalu,5.97647,116.11578
10500,Pulau Pinang,5.41792,100.3296
43400,Serdang,2.98917,101.71252
62550,Putrajaya,2.92636,101.69644
13210,Kepala Batas,5.50478,100.42823
89768,Menumbok,5.31948,115.37558
98157,Bekenu,4.06766,113.83096
87026,Labuan,5.29132,115.24591
34130,Selama,4.9877,100.75603
78400,,,
50340,,,
62675,Putrajaya,2.93436,101.70891
88770,Kota Kinabalu,5.97647,116.11578
50634,Kuala Lumpur,3.14876,101.69524
87029,Labuan,5.29132,115.24591
27660,Sega,3.98169,101.93476
82300,Kukup,1.42299,103.44251
90732,Sandakan,5.84561,118.05706
34120,Selama,5.16769,100.68755
93732,Kuching,1.53098,110.34422
97011,Bintulu,3.19057,113.09011
93756,Kuching,1.53098,110.34422
87032,Labuan,5.29132,115.24591
91010,Tawau,4.28246,117.91479
96507,Bintangor,2.21382,111.55139
88809,Kota Kinabalu,5.97647,116.11578
34310,Bagan Serai,4.90581,100.75679
91033,Tawau,4.28246,117.91479
88833,Kota Kinabalu,5.97647,116.11578
42209,,,
93742,Kuching,1.53098,110.34422
24060,Ceneh,4.11486,103.29089
X87007,,,
93734,Kuching,1.53098,110.34422
88778,Kota Kinabalu,5.97647,116.11578
50710,Kuala Lumpur,3.139,101.68686
40607,Shah Alam,3.09061,101.5296
93744,Kuching,1.53098,110.34422
27207,Kuala Lipis,4.18721,102.05474
35950,Behrang Stesen,3.889,101.41206
47140,Puchong,3.00338,101.6115
88994,Kota Kinabalu,5.97647,116.11578
26170,Kuantan,3.93485,103.37029
84010,,,
40700,Shah Alam,3.09061,101.5296
93730,Kuching,1.53098,110.34422
25740,Kuantan,3.82497,103.3239
98009,Miri,4.33313,113.99486
42940,Pulau Ketam,2.95552,101.32685
88776,Kota Kinabalu,5.97647,116.11578
89859,Sipitang,5.02016,115.58108
91119,Lahad Datu,5.04885,118.35931
75260,Melaka,2.24284,102.23757
80990,Johor Bahru,1.46343,103.75472
42610,Jenjarom,2.83823,101.6827
50790,Kuala Lumpur,3.139,101.68686
95707,Betong,1.4196,111.59594
93716,Kuching,1.53098,110.34422
85210,,,
36009,Teluk Intan,4.01241,101.01801
88993,Kota Kinabalu,5.97647,116.11578
85020,,,
93500,Kuching,1.53098,110.34422
27607,Raub,3.7926,101.85839
65150,,,
88824,Kota Kinabalu,5.97647,116.11578
93720,Kuching,1.53098,110.34422
35007,Tapah,4.20399,101.26097
70700,Seremban,2.71859,101.94899
41710,Klang,3.04306,101.44066
34650,Kuala Sepetang,4.92039,100.6607
5660,Alor Setar,6.11936,100.36769
79200,Nusajaya,1.4836,103.63639
51700,Kuala Lumpur,3.139,101.68685
28620,Karak,3.3706,102.0504
46700,Petaling Jaya,3.10709,101.60826
50734,Kuala Lumpur,3.139,101.68686
31910,Kampar,4.36327,101.08174
88660,Kota Kinabalu,5.86866,118.05754
89749,Kuala Penyu,5.49142,115.54906
50603,Kuala Lumpur,3.12489,101.65276
80500,Johor Bahru,1.46343,103.75472
42507,Telok Panglima Garang,2.91286,101.46862
15670,Kota Bharu,6.12201,102.25227
57700,Kuala Lumpur,3.139,101.68686
70710,Seremban,2.71859,101.94899
93764,Kuching,1.53098,110.34422
X62006,,,
21009,Kuala Terengganu,5.31174,103.11991
27500,,,
50732,Kuala Lumpur,3.139,101.68685
35910,Tanjong Malim,3.86178,101.41965
88670,Kota Kinabalu,5.97647,116.11578
88906,Kota Kinabalu,5.97647,116.11578
93740,Kuching,1.53098,110.34422
75600,Melaka,2.20568,102.25616
88644,Kota Kinabalu,5.97647,116.11578
94760,Serian,1.01721,110.35769
88598,Kota Kinabalu,5.97647,116.11578
79100,Nusajaya,1.48348,103.63407
93760,Kuching,1.53098,110.34422
83710,,,
50774,Kuala Lumpur,3.139,101.68685
47509,,,
88764,Kota Kinabalu,5.97647,116.11578
15710,Kota Bharu,6.12201,102.25227
46795,Petaling Jaya,3.10709,101.60825
62000,Putrajaya,2.92636,101.69644
50945,Kuala Lumpur,3.139,101.68686
36020,Teluk Intan,4.19118,101.03739
96707,Kanowit,1.90641,112.23707
93718,Kuching,1.53098,110.34422
58700,Kuala Lumpur,3.139,101.68686
40604,Shah Alam,3.09061,101.5296